SHIJIAN-20 (SJ-20)      
1 44910U 19097A   23232.75484470  .00000156  00000+0  00000+0 0  9995
2 44910   2.2600  87.4002 0001542  74.4406 118.8501  1.00271673 13340
TJS-5                   
1 44978U 20002A   23231.52637648 -.00000339  00000+0  00000+0 0  9992
2 44978   0.2067 286.9656 0001355 214.6133 123.0725  1.00272353 13338
GSAT-30                 
1 45026U 20005A   23232.02896459 -.00000161  00000+0  00000+0 0  9996
2 45026   0.0684 275.1000 0002726 190.2386 316.2042  1.00273472 13185
EUTELSAT KONNECT        
1 45027U 20005B   23231.04771851  .00000051  00000+0  00000+0 0  9993
2 45027   0.0445  94.1443 0000081 279.4361 337.9123  1.00272602 13966
JCSAT-17                
1 45245U 20013A   23231.72757830 -.00000310  00000+0  00000+0 0  9999
2 45245   5.7881 347.5883 0004225 160.6193 217.5305  1.00272305 12891
GEO-KOMPSAT-2B          
1 45246U 20013B   23232.46145140 -.00000338  00000+0  00000+0 0  9997
2 45246   0.0442 279.5021 0001094 296.9299  46.4739  1.00273572 12901
BEIDOU-3 G2             
1 45344U 20017A   23231.79022431 -.00000137  00000+0  00000+0 0  9999
2 45344   2.0385  15.3313 0003184 141.7104 175.3673  1.00272075 12919
AEHF-6 (USA 298)        
1 45465U 20022B   23232.48590008 -.00000292  00000+0  00000+0 0  9998
2 45465   4.9420 299.8388 0043603   7.3331 334.0626  1.00270854 12638
BEIDOU-3 G3             
1 45807U 20040A   23232.13762494 -.00000348  00000+0  00000+0 0  9992
2 45807   0.6301 340.4746 0004882 352.2839 155.5578  1.00269824 11738
APSTAR 6D               
1 45863U 20045A   23232.20743637 -.00000313  00000+0  00000+0 0  9997
2 45863   0.0192  95.0116 0001944  33.9290  48.0332  1.00270229 11506
KOREASAT 116            
1 45920U 20048A   23232.20173948 -.00000357  00000+0  00000+0 0  9994
2 45920   0.0201 102.9398 0000924  47.8224   6.3478  1.00270841 11282
EXPRESS 103             
1 45985U 20053A   23232.06507660 -.00000276  00000+0  00000+0 0  9997
2 45985   0.0151 137.3511 0000254 254.9815  55.7397  1.00269429 11298
EXPRESS 80              
1 45986U 20053B   23230.90955331 -.00000135  00000+0  00000+0 0  9995
2 45986   0.0147 160.4666 0000499 189.0194  24.9526  1.00272814 11284
BSAT-4B                 
1 46112U 20056A   23232.11756594 -.00000345  00000+0  00000+0 0  9998
2 46112   0.0369 209.8793 0004961 296.8511 333.6254  1.00271003 11051
MEV-2                   
1 46113U 20056B   23207.88814418  .00000003  00000+0  00000+0 0  9995
2 46113   0.0160  57.4298 0001639  97.2094 108.4150  1.00268202 69958
GALAXY 30 (G-30)        
1 46114U 20056C   23232.55079550  .00000043  00000+0  00000+0 0  9992
2 46114   0.0220 116.3122 0002777  46.0600 239.5382  1.00271291 11059
GAOFEN 13-01            
1 46610U 20071A   23231.52925304 -.00000360  00000+0  00000+0 0  9996
2 46610   0.4148  90.9763 0001324  11.4063 173.6405  1.00271750 10544
TIANTONG-1 2            
1 46916U 20082A   23231.53186569 -.00000352  00000+0  00000+0 0  9991
2 46916   3.0923 293.2581 0002029 244.7207 106.0312  1.00272376 10297
LUCAS (JDRS-1)          
1 47202U 20089A   23231.72981227 -.00000232  00000+0  00000+0 0  9999
2 47202   0.0407 277.3137 0002147 231.6284 172.3743  1.00270833 10044
SXM-7                   
1 47240U 20096A   23231.33028006 -.00000202  00000+0  00000+0 0  9990
2 47240   0.0241  16.6201 0000326 136.4176 208.0386  1.00272523  9986
CMS-01                  
1 47256U 20099A   23231.44919372 -.00000160  00000+0  00000+0 0  9990
2 47256   0.0206 240.8202 0005374  14.3679 317.0225  1.00266686  9836
TURKSAT 5A              
1 47306U 21001A   23231.29548147  .00000157  00000+0  00000+0 0  9996
2 47306   0.0141 105.5167 0000176 266.6133  92.5461  1.00271458  9637
TIANTONG-1 3            
1 47321U 21003A   23232.02217646 -.00000149  00000+0  00000+0 0  9996
2 47321   3.5055 309.1139 0003534 213.9800 254.5153  1.00272278  9622
TJS-6                   
1 47613U 21010A   23232.55190538  .00000048  00000+0  00000+0 0  9993
2 47613   0.4328  83.1345 0000689 150.2902 112.4320  1.00268581  9469
SBIRS GEO-5 (USA 315)   
1 48618U 21042A   23231.50846198  .00000122  00000+0  00000+0 0  9991
2 48618   6.6370 325.4670 0001780 193.2803  12.7869  1.00273049  8377
FENGYUN 4B              
1 48808U 21047A   23231.77341278 -.00000319  00000+0  00000+0 0  9994
2 48808   0.1348  80.1715 0002019  60.8083 238.4712  1.00268256  8213
SXM-8                   
1 48838U 21049A   23231.55901758 -.00000202  00000+0  00000+0 0  9991
2 48838   0.0318 244.0603 0003548 126.6914  72.9075  1.00273457  8279
TIANLIAN 1-05           
1 49011U 21063A   23232.29588889  .00000113  00000+0  00000+0 0  9999
2 49011   1.0833 279.3152 0003893 227.7681 304.5627  1.00272277  7728
STAR ONE D2             
1 49055U 21069A   23231.06033230 -.00000263  00000+0  00000+0 0  9999
2 49055   0.0209 112.9706 0002642  47.6733 118.2055  1.00270117  7543
EUTELSAT QUANTUM        
1 49056U 21069B   23232.08711424  .00000130  00000+0  00000+0 0  9993
2 49056   0.0308 321.3249 0001889 196.2695 249.6204  1.00272219  7575
CHINASAT 2E (ZX 2E)     
1 49062U 21071A   23232.06507660 -.00000287  00000+0  00000+0 0  9990
2 49062   0.0107 150.0189 0001216 128.9050 170.7050  1.00273914  7699
TJS-7                   
1 49115U 21077A   23232.07896626 -.00000120  00000+0  00000+0 0  9995
2 49115   0.3714  95.9235 0003434 275.2238 246.0327  1.00271384  7460
CHINASAT 9B             
1 49125U 21080A   23231.52328594 -.00000310  00000+0  00000+0 0  9994
2 49125   0.0394 281.1617 0002443 233.0980 103.1314  1.00274156  7278
SHIJIAN-21 (SJ-21)      
1 49330U 21094A   23232.69654756  .00000148  00000+0  00000+0 0  9996
2 49330   9.2424  47.3283 0080841  26.6164 179.2149  1.00364201  6900
SES-17                  
1 49332U 21095A   23231.56259135 -.00000269  00000+0  00000+0 0  9991
2 49332   0.0205 100.0380 0001026  45.6735 317.3676  1.00269941  7485
SYRACUSE 4A             
1 49333U 21095B   23232.44492399  .00000141  00000+0  00000+0 0  9999
2 49333   0.0214 116.8736 0001653  24.2679  33.0418  1.00269564  7647
QZS-1R                  
1 49336U 21096A   23223.74525463 -.00000331  00000+0  00000+0 0  9997
2 49336  35.3005  95.2790 0740332 268.7858 355.3268  1.00301615  6575
CHINASAT 1D (ZX 1D)     
1 49505U 21114A   23231.53343395 -.00000333  00000+0  00000+0 0  9996
2 49505   0.3876 272.2659 0001472 276.2519 101.2600  1.00275668  6470
STPSAT-6                
1 49817U 21118A   23232.09702117 -.00000041  00000+0  00000+0 0  9995
2 49817   0.0550 274.2686 0000451 228.9555 108.2155  1.00271641  6226
LDPE-1                  
1 49818U 21118B   23232.29458142  .00000055  00000+0  00000+0 0  9998
2 49818   1.4481  92.1986 0001348 127.6063 224.6373  1.01887410  6278
EXPRESS AMU-7           
1 50001U 21123A   23230.81648116 -.00000241  00000+0  00000+0 0  9996
2 50001   0.0259 118.1607 0000664 199.4863  88.2051  1.00273496  6174
EXPRESS AMU-3           
1 50002U 21123B   23230.88814501 -.00000320  00000+0  00000+0 0  9995
2 50002   0.0166 129.4523 0000311 226.8773  33.3655  1.00272061  6143
TIANLIAN 2-02           
1 50005U 21124A   23231.77090076 -.00000011  00000+0  00000+0 0  9998
2 50005   1.4585 277.2946 0002217 204.9909 294.0902  1.00271114  6253
TURKSAT 5B              
1 50212U 21126A   23231.26160384  .00000148  00000+0  00000+0 0  9994
2 50212   0.0697 336.3442 0001636 359.2375 127.9386  1.00272684  5932
INMARSAT 6-F1           
1 50319U 21128A   23231.16266642 -.00000170  00000+0  00000+0 0  9993
2 50319   0.0209  93.3108 0000823 128.9774 247.2644  1.00271725  5881
SHIYAN 12 01 (SY-12 01) 
1 50321U 21129A   23232.69427836 -.00000344  00000+0  00000+0 0  9993
2 50321   0.9993  97.4193 0001188 144.8808  91.4731  1.00092030  6160
SHIYAN 12 02 (SY-12 02) 
1 50322U 21129B   23232.68389528  .00000118  00000+0  00000+0 0  9996
2 50322   0.9991  97.4460 0001961 137.7459  25.9642  1.00456590  6166
TJS-9                   
1 50574U 21135A   23231.53812291 -.00000295  00000+0  00000+0 0  9990
2 50574   0.0495 266.1440 0003129 265.7200 126.6910  1.00275317  6109
USA 324                 
1 51280U 22006A   23220.34889545 -.00000277  00000+0  00000+0 0  9996
2 51280   1.0167  92.2812 0000559 148.7581 324.4563  1.00992227  5666
USA 325                 
1 51281U 22006B   23220.33938469 -.00000001  00000+0  00000+0 0  9991
2 51281   0.2211  94.5258 0001127  44.0371 110.9107  1.00394134  5647
GOES 18                 
1 51850U 22021A   23232.54309244  .00000102  00000+0  00000+0 0  9990
2 51850   0.0026 177.2706 0000340 330.1622 239.6857  1.00272959  5463
CHINASAT 6D             
1 52255U 22038A   23230.74467296 -.00000353  00000+0  00000+0 0  9999
2 52255   0.0610 266.0877 0001581 307.7913 146.1053  1.00270412  5089
NILESAT 301             
1 52817U 22061A   23232.36283147 -.00000052  00000+0  00000+0 0  9996
2 52817   0.0501   0.3154 0002461 116.7006 335.0344  1.00271937  4396
CMS-02 (GSAT 24)        
1 52903U 22067A   23232.45242017 -.00000160  00000+0  00000+0 0  9999
2 52903   0.1241 272.4867 0007074 188.6337 113.2687  1.00273319  4265
MEASAT 3D               
1 52904U 22067B   23231.80957056 -.00000237  00000+0  00000+0 0  9999
2 52904   0.0183 324.3195 0000756 257.0471 129.4711  1.00269893  4293
SES-22                  
1 52933U 22071A   23231.69244646  .00000092  00000+0  00000+0 0  9995
2 52933   0.0175 128.8084 0001340  10.8003 302.4389  1.00269639  4210
WFOV (USA 332)          
1 52940U 22073A   23232.05535685 -.00000358  00000+0  00000+0 0  9998
2 52940   1.0392  92.6288 0004005  65.2760 309.3862  1.00274841  4010
TIANLIAN 2-03           
1 53100U 22078A   23230.93371784  .00000073  00000+0  00000+0 0  9998
2 53100   2.0104 280.7967 0001837 228.5689 164.3591  1.00273273  4194
SBIRS GEO-6 (USA 336)   
1 53355U 22092A   23232.45201749  .00000124  00000+0  00000+0 0  9995
2 53355   5.2019 310.9373 0013103 181.9360 213.2337  1.00267822  3880
